start=new Date('2022-12-28T00:00:00.000Z').valueOf();
sats=[{"MEAN_MOTION":"15.08848854","REV_AT_EPOCH":"1665","CENTER_NAME":"EARTH","REF_FRAME":"TEME","MEAN_ANOMALY":"71.3112","EPHEMERIS_TYPE":"0","TLE_LINE1":"1 53804U 22111AH  22361.00001157 -.00022036  00000-0 -13703-2 0  9996","OBJECT_TYPE":"PAYLOAD","GP_ID":"221534525","TIME_SYSTEM":"UTC","COUNTRY_CODE":"US","PERIAPSIS":"538.423","APOAPSIS":"541.014","PERIOD":"95.437","RCS_SIZE":"LARGE","ECCENTRICITY":"0.00018730","OBJECT_ID":"2022-111AH","RA_OF_ASC_NODE":"105.3479","EPOCH":"2022-12-27T00:00:00.999648","TLE_LINE2":"2 53804  53.2139 105.3479 0001873  50.5723  71.3112 15.08848854 16659","SITE":"AFETR","ELEMENT_SET_NO":"999","SEMIMAJOR_AXIS":"6917.853","OBJECT_NAME":"STARLINK-4729","MEAN_MOTION_DDOT":"0.0000000000000","MEAN_MOTION_DOT":"-0.00022036","NORAD_CAT_ID":"53804","MEAN_ELEMENT_THEORY":"SGP4","FILE":"3723532","DECAY_DATE":null,"CLASSIFICATION_TYPE":"U","ARG_OF_PERICENTER":"50.5723","LAUNCH_DATE":"2022-09-11","INCLINATION":"53.2139","BSTAR":"-0.00137030000000"},{"OBJECT_NAME":"STARLINK-4763","SEMIMAJOR_AXIS":"6795.051","MEAN_MOTION_DDOT":"0.0000000000000","MEAN_MOTION_DOT":"-0.00022886","RA_OF_ASC_NODE":"93.3647","OBJECT_ID":"2022-111AJ","SITE":"AFETR","TLE_LINE2":"2 53805  53.2142  93.3647 0001562  43.8388 183.6191 15.49935852 16917","EPOCH":"2022-12-28T02:00:01.000224","ELEMENT_SET_NO":"999","BSTAR":"-0.00039571000000","INCLINATION":"53.2142","LAUNCH_DATE":"2022-09-11","NORAD_CAT_ID":"53805","CLASSIFICATION_TYPE":"U","ARG_OF_PERICENTER":"43.8388","MEAN_ELEMENT_THEORY":"SGP4","FILE":"3724236","DECAY_DATE":null,"TIME_SYSTEM":"UTC","GP_ID":"221627960","OBJECT_TYPE":"PAYLOAD","TLE_LINE1":"1 53805U 22111AJ  22362.08334491 -.00022886  00000-0 -39571-3 0  9991","PERIAPSIS":"415.854","COUNTRY_CODE":"US","CENTER_NAME":"EARTH","REV_AT_EPOCH":"1691","MEAN_MOTION":"15.49935852","MEAN_ANOMALY":"183.6191","EPHEMERIS_TYPE":"0","REF_FRAME":"TEME","RCS_SIZE":"LARGE","PERIOD":"92.907","ECCENTRICITY":"0.00015620","APOAPSIS":"417.977"},{"LAUNCH_DATE":"2022-09-11","INCLINATION":"53.2143","BSTAR":"0.00122540000000","FILE":"3724244","DECAY_DATE":null,"MEAN_ELEMENT_THEORY":"SGP4","CLASSIFICATION_TYPE":"U","ARG_OF_PERICENTER":"43.8251","NORAD_CAT_ID":"53806","MEAN_MOTION_DDOT":"0.0000000000000","MEAN_MOTION_DOT":"0.00069548","OBJECT_NAME":"STARLINK-4768","SEMIMAJOR_AXIS":"6795.400","EPOCH":"2022-12-28T02:00:01.000224","TLE_LINE2":"2 53806  53.2143  93.3577 0001696  43.8251 186.4518 15.49816190 16915","SITE":"AFETR","ELEMENT_SET_NO":"999","OBJECT_ID":"2022-111AK","RA_OF_ASC_NODE":"93.3577","ECCENTRICITY":"0.00016960","PERIOD":"92.914","RCS_SIZE":"LARGE","APOAPSIS":"418.418","COUNTRY_CODE":"US","PERIAPSIS":"416.113","TLE_LINE1":"1 53806U 22111AK  22362.08334491  .00069548  00000-0  12254-2 0  9994","GP_ID":"221627967","TIME_SYSTEM":"UTC","OBJECT_TYPE":"PAYLOAD","REF_FRAME":"TEME","MEAN_ANOMALY":"186.4518","EPHEMERIS_TYPE":"0","REV_AT_EPOCH":"1691","MEAN_MOTION":"15.49816190","CENTER_NAME":"EARTH"},{"RA_OF_ASC_NODE":"147.3027","OBJECT_ID":"2022-114A","ELEMENT_SET_NO":"999","EPOCH":"2022-12-27T18:48:58.426848","TLE_LINE2":"2 53818  53.2184 147.3027 0002362  49.5894 310.5304 15.08847843 16614","SITE":"AFETR","OBJECT_NAME":"STARLINK-4749","SEMIMAJOR_AXIS":"6917.856","MEAN_MOTION_DOT":"0.00000746","MEAN_MOTION_DDOT":"0.0000000000000","NORAD_CAT_ID":"53818","ARG_OF_PERICENTER":"49.5894","CLASSIFICATION_TYPE":"U","MEAN_ELEMENT_THEORY":"SGP4","FILE":"3724149","DECAY_DATE":null,"BSTAR":"0.00006497100000","INCLINATION":"53.2184","LAUNCH_DATE":"2022-09-19","CENTER_NAME":"EARTH","MEAN_MOTION":"15.08847843","REV_AT_EPOCH":"1661","EPHEMERIS_TYPE":"0","MEAN_ANOMALY":"310.5304","REF_FRAME":"TEME","OBJECT_TYPE":"PAYLOAD","GP_ID":"221625827","TIME_SYSTEM":"UTC","TLE_LINE1":"1 53818U 22114A   22361.78400957  .00000746  00000-0  64971-4 0  9997","PERIAPSIS":"538.087","COUNTRY_CODE":"US","APOAPSIS":"541.355","RCS_SIZE":"LARGE","PERIOD":"95.437","ECCENTRICITY":"0.00023620"},{"MEAN_MOTION_DOT":"0.00001076","MEAN_MOTION_DDOT":"0.0000000000000","OBJECT_NAME":"STARLINK-4738","SEMIMAJOR_AXIS":"6917.895","ELEMENT_SET_NO":"999","TLE_LINE2":"2 53819  53.2181 147.2549 0001706  60.0040 300.1122 15.08835169 16512","SITE":"AFETR","EPOCH":"2022-12-27T18:38:22.496064","RA_OF_ASC_NODE":"147.2549","OBJECT_ID":"2022-114B","INCLINATION":"53.2181","BSTAR":"0.00008569700000","LAUNCH_DATE":"2022-09-19","ARG_OF_PERICENTER":"60.0040","CLASSIFICATION_TYPE":"U","MEAN_ELEMENT_THEORY":"SGP4","FILE":"3724149","DECAY_DATE":null,"NORAD_CAT_ID":"53819","PERIAPSIS":"538.580","COUNTRY_CODE":"US","GP_ID":"221624759","TIME_SYSTEM":"UTC","OBJECT_TYPE":"PAYLOAD","TLE_LINE1":"1 53819U 22114B   22361.77664926  .00001076  00000-0  85697-4 0  9990","EPHEMERIS_TYPE":"0","MEAN_ANOMALY":"300.1122","REF_FRAME":"TEME","CENTER_NAME":"EARTH","REV_AT_EPOCH":"1651","MEAN_MOTION":"15.08835169","ECCENTRICITY":"0.00017060","RCS_SIZE":"LARGE","PERIOD":"95.438","APOAPSIS":"540.940"},{"EPHEMERIS_TYPE":"0","MEAN_ANOMALY":"305.4608","REF_FRAME":"TEME","CENTER_NAME":"EARTH","REV_AT_EPOCH":"1651","MEAN_MOTION":"15.08855856","COUNTRY_CODE":"US","PERIAPSIS":"538.295","GP_ID":"221624973","OBJECT_TYPE":"PAYLOAD","TIME_SYSTEM":"UTC","TLE_LINE1":"1 53820U 22114C   22361.78033126  .00000425  00000-0  44817-4 0  9991","APOAPSIS":"541.098","ECCENTRICITY":"0.00020260","RCS_SIZE":"LARGE","PERIOD":"95.437","ELEMENT_SET_NO":"999","EPOCH":"2022-12-27T18:43:40.620864","TLE_LINE2":"2 53820  53.2189 147.2799 0002026  54.6573 305.4608 15.08855856 16517","SITE":"AFETR","RA_OF_ASC_NODE":"147.2799","OBJECT_ID":"2022-114C","MEAN_MOTION_DOT":"0.00000425","MEAN_MOTION_DDOT":"0.0000000000000","OBJECT_NAME":"STARLINK-4758","SEMIMAJOR_AXIS":"6917.832","ARG_OF_PERICENTER":"54.6573","CLASSIFICATION_TYPE":"U","DECAY_DATE":null,"FILE":"3724149","MEAN_ELEMENT_THEORY":"SGP4","NORAD_CAT_ID":"53820","INCLINATION":"53.2189","BSTAR":"0.00004481700000","LAUNCH_DATE":"2022-09-19"},{"TLE_LINE2":"2 53821  53.2162 125.5005 0004647 348.2913  11.7999 15.73262703 16817","EPOCH":"2022-12-27T17:26:15.003456","SITE":"AFETR","ELEMENT_SET_NO":"999","RA_OF_ASC_NODE":"125.5005","OBJECT_ID":"2022-114D","MEAN_MOTION_DDOT":"0.0000000000000","MEAN_MOTION_DOT":"0.00011837","OBJECT_NAME":"STARLINK-4752","SEMIMAJOR_AXIS":"6727.716","CLASSIFICATION_TYPE":"U","ARG_OF_PERICENTER":"348.2913","FILE":"3724149","DECAY_DATE":null,"MEAN_ELEMENT_THEORY":"SGP4","NORAD_CAT_ID":"53821","INCLINATION":"53.2162","BSTAR":"0.00008839400000","LAUNCH_DATE":"2022-09-19","MEAN_ANOMALY":"11.7999","EPHEMERIS_TYPE":"0","REF_FRAME":"TEME","CENTER_NAME":"EARTH","MEAN_MOTION":"15.73262703","REV_AT_EPOCH":"1681","COUNTRY_CODE":"US","PERIAPSIS":"346.455","GP_ID":"221625614","OBJECT_TYPE":"PAYLOAD","TIME_SYSTEM":"UTC","TLE_LINE1":"1 53821U 22114D   22361.72656254  .00011837  00000-0  88394-4 0  9996","APOAPSIS":"352.708","ECCENTRICITY":"0.00046470","RCS_SIZE":"LARGE","PERIOD":"91.530"},{"CENTER_NAME":"EARTH","REV_AT_EPOCH":"1677","MEAN_MOTION":"15.73259497","EPHEMERIS_TYPE":"0","MEAN_ANOMALY":"24.6779","REF_FRAME":"TEME","TIME_SYSTEM":"UTC","GP_ID":"221567655","OBJECT_TYPE":"PAYLOAD","TLE_LINE1":"1 53823U 22114F   22361.33904571  .00027108  00000-0  19636-3 0  9993","PERIAPSIS":"346.322","COUNTRY_CODE":"US","APOAPSIS":"352.859","RCS_SIZE":"LARGE","PERIOD":"91.530","ECCENTRICITY":"0.00048580","RA_OF_ASC_NODE":"125.8702","OBJECT_ID":"2022-114F","ELEMENT_SET_NO":"999","TLE_LINE2":"2 53823  53.2169 125.8702 0004858 335.4009  24.6779 15.73259497 16771","EPOCH":"2022-12-27T08:08:13.549344","SITE":"AFETR","OBJECT_NAME":"STARLINK-4748","SEMIMAJOR_AXIS":"6727.726","MEAN_MOTION_DOT":"0.00027108","MEAN_MOTION_DDOT":"0.0000000000000","NORAD_CAT_ID":"53823","ARG_OF_PERICENTER":"335.4009","CLASSIFICATION_TYPE":"U","DECAY_DATE":null,"FILE":"3723863","MEAN_ELEMENT_THEORY":"SGP4","INCLINATION":"53.2169","BSTAR":"0.00019636000000","LAUNCH_DATE":"2022-09-19"},{"REF_FRAME":"TEME","MEAN_ANOMALY":"310.7651","EPHEMERIS_TYPE":"0","REV_AT_EPOCH":"1642","MEAN_MOTION":"15.08836188","CENTER_NAME":"EARTH","PERIAPSIS":"538.291","COUNTRY_CODE":"US","TLE_LINE1":"1 53824U 22114G   22361.76927462  .00000805  00000-0  68700-4 0  9997","GP_ID":"221624332","TIME_SYSTEM":"UTC","OBJECT_TYPE":"PAYLOAD","APOAPSIS":"541.223","ECCENTRICITY":"0.00021190","PERIOD":"95.438","RCS_SIZE":"LARGE","TLE_LINE2":"2 53824  53.2180 147.2133 0002119  49.3525 310.7651 15.08836188 16429","SITE":"AFETR","EPOCH":"2022-12-27T18:27:45.327168","ELEMENT_SET_NO":"999","OBJECT_ID":"2022-114G","RA_OF_ASC_NODE":"147.2133","MEAN_MOTION_DDOT":"0.0000000000000","MEAN_MOTION_DOT":"0.00000805","OBJECT_NAME":"STARLINK-4757","SEMIMAJOR_AXIS":"6917.892","MEAN_ELEMENT_THEORY":"SGP4","FILE":"3724149","DECAY_DATE":null,"CLASSIFICATION_TYPE":"U","ARG_OF_PERICENTER":"49.3525","NORAD_CAT_ID":"53824","LAUNCH_DATE":"2022-09-19","BSTAR":"0.00006870000000","INCLINATION":"53.2180"},{"EPHEMERIS_TYPE":"0","MEAN_ANOMALY":"307.3998","REF_FRAME":"TEME","CENTER_NAME":"EARTH","REV_AT_EPOCH":"1646","MEAN_MOTION":"15.08842230","COUNTRY_CODE":"US","PERIAPSIS":"538.517","OBJECT_TYPE":"PAYLOAD","GP_ID":"221567241","TIME_SYSTEM":"UTC","TLE_LINE1":"1 53825U 22114H   22361.44176082  .00000325  00000-0  38508-4 0  9997","APOAPSIS":"540.960","ECCENTRICITY":"0.00017660","RCS_SIZE":"LARGE","PERIOD":"95.437","ELEMENT_SET_NO":"999","TLE_LINE2":"2 53825  53.2169 148.7185 0001766  52.7154 307.3998 15.08842230 16468","EPOCH":"2022-12-27T10:36:08.134848","SITE":"AFETR","RA_OF_ASC_NODE":"148.7185","OBJECT_ID":"2022-114H","MEAN_MOTION_DOT":"0.00000325","MEAN_MOTION_DDOT":"0.0000000000000","OBJECT_NAME":"STARLINK-4751","SEMIMAJOR_AXIS":"6917.874","ARG_OF_PERICENTER":"52.7154","CLASSIFICATION_TYPE":"U","MEAN_ELEMENT_THEORY":"SGP4","FILE":"3723863","DECAY_DATE":null,"NORAD_CAT_ID":"53825","INCLINATION":"53.2169","BSTAR":"0.00003850800000","LAUNCH_DATE":"2022-09-19"}];
